name,lat,lng,address,city,state,zip,phone
Costco,40.067374,-74.131446,465 Route 70,Brick,NJ,08723,(732) 262-6300
Costco,40.566950,-74.559594,325 Promenade Blvd,Bridgewater,NJ,08807,(732) 262-6300
Costco,40.830367,-74.136393,20 Bridewell Place,Clifton,NJ,07014,(973) 779-8715
Costco,40.818071,-74.36387,156 NJ-10 West,East Hanover,NJ,07936,(973) 602-2000
Costco,40.518720,-74.412100,205 Vineyard N,Edison,NJ,08817,(732) 491-2023
Costco,40.877149,-74.040955,80 South River Street,Hackensack,NJ,07601,(201) 296-3044
Costco,40.417204,-74.170578,2835 Route 35 N,Hazlet,NJ,07730,(732) 335-3814
Costco,40.346409,-74.307549,18 Route 9 North,Morganville,NJ,07751,(732) 617-4340
Costco,39.972689,-74.909004,100 Centerton Road,Mt Laurel,NJ,08054,(856) 359-3650
Costco,40.235268,-74.035669,2361 Hwy 66,Ocean Township,NJ,07712,(732) 481-0023
Costco,39.712668,-74.283436,245 Stafford Park Blvd,Stafford Township,NJ,08050,(609) 242-2011
Costco,40.693979,-74.290362,1055 Hudson St,Union,NJ,07083,(908) 810-1458
Costco,40.885796,-74.253380,77 Willowbrook Boulevard,Wayne,NJ,07470,(973) 339-4006
Costco,40.907440,-74.570485,315 Route 15 N,Wharton,NJ,07885,(973) 659-2000
Whole Foods,40.312380,-74.248530,113 Route 9 South,Marlboro,NJ,07726,732-792-5900
Whole Foods,40.805090,-74.248570,235 Prospect Ave West,Orange,NJ,07052,973.669.3196
Whole Foods,40.577110,-74.560341,319 Chimney Rock Road,Bridgewater,NJ,08805,732.584.1960
Whole Foods,40.540298,-74.366402,645 Middlesex Avenue,Metuchen,NJ,08840,732.515.6180
Whole Foods,40.740269,-74.169823,633 Broad Street,Newark,NJ,07102,973-755-5080
Whole Foods,40.098598,-74.083458,1933 State Road 35,Wall,NJ,07719,732.359.3400
Whole Foods,40.631599,-74.305161,1255 Raritan Road Unit 150,Clark,NJ,07066,732.381.1010
Whole Foods,40.799460,-74.488560,110 Washington Street,Morristown,NJ,07960,973-385-1900
Whole Foods,39.915970,-75.008171,1558 North Kings Highway,Cherry Hill,NJ,08034,856-651-5271
Whole Foods,40.970840,-73.959068,45 Vervalen Street,Closter,NJ,07624,201-367-9099
Whole Foods,40.753550,-74.405740,222 Main St,Madison,NJ,07940,973.822.8444
Whole Foods,40.396340,-74.652150,3495 US Route 1 South,Princeton,NJ,08540,609.799.2919
Whole Foods,40.915932,-74.061623,300 Bergen Town Center,Paramus,NJ,07652,201.226.1244
Whole Foods,39.857712,-74.920578,940 Route 73 North,Marlton,NJ,08053,856.797.1115
Whole Foods,40.716500,-74.286320,2245 Springfield Ave,Vauxhall,NJ,07088,908.688.1455
Whole Foods,40.825080,-73.973930,905 River Road,Edgewater,NJ,07020,201.941.4000
Whole Foods,40.376510,-74.089520,471 State Route 35 North,Red Bank,NJ,07701,732.758.1688
Trader Joes,40.836220,-74.150190,259 Allwood Rd,Clifton,NJ,07012,973-777-5020
Trader Joes,40.376510,-74.089520,471 State Route 35 North,Red Bank,NJ,07701,732.758.1688
Trader Joes,40.806530,-73.991290,715 River Road,Edgewater,NJ,07020,201-945-5932
Trader Joes,40.788620,-74.391230,176 Columbia Turnpike,Florham Park,NJ,07932,973-377-0679
Trader Joes,40.753910,-74.029660,1350 Willow Ave,Hoboken,NJ,07030,201-714-4790
Trader Joes,39.890500,-74.924010,300 P Route 73 South,Marlton,NJ,08053,856-988-3323
Trader Joes,40.723300,-74.295750,187 Millburn Ave,Millburn,NJ,07041,973-218-0912
Trader Joes,40.462970,-74.458930,869 US-1,North Brunswick,NJ,08902,732-993-1403
Trader Joes,40.948280,-74.071120,404 Rt. 17 North,Paramus,NJ,07652,201-265-9624
Trader Joes,40.310880,-74.661180,3528 US 1,Princeton,NJ,08540,609-897-0581
Trader Joes,40.316780,-74.060910,1031 Broad St,Shrewsbury,NJ,07702,732-389-2535
Trader Joes,40.961250,-74.242430,1172 Hamburg Turnpike,Wayne,NJ,07470,973-692-0050
Trader Joes,40.652010,-74.350160,155 Elm Street,Westfield,NJ,07090,908-301-0910
Trader Joes,40.993070,-74.035820,20 Irvington Street,Westwood,NJ,07675,201-263-0134